{
    "week": 294,
    "satellites": [
        {
            "Name": "COSMOS 2545 (760)",
            "Line1": "1 45358U 20018A   24331.42004632 -.00000044  00000+0  00000+0 0  9997",
            "Line2": "2 45358  64.6735 332.3046 0012179 249.5498 110.3502  2.13102630 36560",
            "SatelliteNumber": "45358",
            "Classification": "U",
            "LaunchYear": "20",
            "LaunchNumber": "018",
            "PieceOfLaunch": "A",
            "EpochYear": "24",
            "EpochDay": 331.42004632,
            "FirstDerivativeMeanMotion": -4.4e-07,
            "SecondDerivativeMeanMotion": "00000+0",
            "BSTAR": "00000+0",
            "SetNumber": "999",
            "Inclination": 64.6735,
            "RAAN": 332.3046,
            "Eccentricity": 0.0012179,
            "ArgumentOfPerigee": 249.5498,
            "MeanAnomaly": 110.3502,
            "MeanMotion": 2.1310263,
            "RevolutionNumber": "3656"
        },
        {
            "Name": "COSMOS 2547 (705K)",
            "Line1": "1 46805U 20075A   24330.19879340  .00000019  00000+0  00000+0 0  9998",
            "Line2": "2 46805  64.5958 211.4817 0006306 235.1004 124.9158  2.13102907 31780",
            "SatelliteNumber": "46805",
            "Classification": "U",
            "LaunchYear": "20",
            "LaunchNumber": "075",
            "PieceOfLaunch": "A",
            "EpochYear": "24",
            "EpochDay": 330.1987934,
            "FirstDerivativeMeanMotion": 1.9e-07,
            "SecondDerivativeMeanMotion": "00000+0",
            "BSTAR": "00000+0",
            "SetNumber": "999",
            "Inclination": 64.5958,
            "RAAN": 211.4817,
            "Eccentricity": 0.0006306,
            "ArgumentOfPerigee": 235.1004,
            "MeanAnomaly": 124.9158,
            "MeanMotion": 2.13102907,
            "RevolutionNumber": "3178"
        },
        {
            "Name": "COSMOS 2557 (706K)",
            "Line1": "1 52984U 22075A   24331.30328848 -.00000045  00000+0  00000+0 0  9991",
            "Line2": "2 52984  64.6044 334.4237 0014104 277.1990  82.6743  2.13102129 18601",
            "SatelliteNumber": "52984",
            "Classification": "U",
            "LaunchYear": "22",
            "LaunchNumber": "075",
            "PieceOfLaunch": "A",
            "EpochYear": "24",
            "EpochDay": 331.30328848,
            "FirstDerivativeMeanMotion": -4.5e-07,
            "SecondDerivativeMeanMotion": "00000+0",
            "BSTAR": "00000+0",
            "SetNumber": "999",
            "Inclination": 64.6044,
            "RAAN": 334.4237,
            "Eccentricity": 0.0014104,
            "ArgumentOfPerigee": 277.199,
            "MeanAnomaly": 82.6743,
            "MeanMotion": 2.13102129,
            "RevolutionNumber": "1860"
        },
        {
            "Name": "COSMOS 2559 (707K)",
            "Line1": "1 54031U 22130A   24330.30818121 -.00000046  00000+0  00000+0 0  9996",
            "Line2": "2 54031  64.5767 334.5705 0008252 232.9382 127.0203  2.13101462 16566",
            "SatelliteNumber": "54031",
            "Classification": "U",
            "LaunchYear": "22",
            "LaunchNumber": "130",
            "PieceOfLaunch": "A",
            "EpochYear": "24",
            "EpochDay": 330.30818121,
            "FirstDerivativeMeanMotion": -4.6e-07,
            "SecondDerivativeMeanMotion": "00000+0",
            "BSTAR": "00000+0",
            "SetNumber": "999",
            "Inclination": 64.5767,
            "RAAN": 334.5705,
            "Eccentricity": 0.0008252,
            "ArgumentOfPerigee": 232.9382,
            "MeanAnomaly": 127.0203,
            "MeanMotion": 2.13101462,
            "RevolutionNumber": "1656"
        },
        {
            "Name": "COSMOS 2564 (761)",
            "Line1": "1 54377U 22161A   24331.43690713  .00000037  00000+0  00000+0 0  9992",
            "Line2": "2 54377  64.7372 211.5742 0008364 210.8911 149.1396  2.13102189 15536",
            "SatelliteNumber": "54377",
            "Classification": "U",
            "LaunchYear": "22",
            "LaunchNumber": "161",
            "PieceOfLaunch": "A",
            "EpochYear": "24",
            "EpochDay": 331.43690713,
            "FirstDerivativeMeanMotion": 3.7e-07,
            "SecondDerivativeMeanMotion": "00000+0",
            "BSTAR": "00000+0",
            "SetNumber": "999",
            "Inclination": 64.7372,
            "RAAN": 211.5742,
            "Eccentricity": 0.0008364,
            "ArgumentOfPerigee": 210.8911,
            "MeanAnomaly": 149.1396,
            "MeanMotion": 2.13102189,
            "RevolutionNumber": "1553"
        },
        {
            "Name": "COSMOS 2569 (703K)",
            "Line1": "1 57517U 23114A   24330.98362066  .00000002  00000+0  00000+0 0  9998",
            "Line2": "2 57517  64.9936  91.8306 0009494 289.5064  70.3772  2.13104134 10153",
            "SatelliteNumber": "57517",
            "Classification": "U",
            "LaunchYear": "23",
            "LaunchNumber": "114",
            "PieceOfLaunch": "A",
            "EpochYear": "24",
            "EpochDay": 330.98362066,
            "FirstDerivativeMeanMotion": 2e-08,
            "SecondDerivativeMeanMotion": "00000+0",
            "BSTAR": "00000+0",
            "SetNumber": "999",
            "Inclination": 64.9936,
            "RAAN": 91.8306,
            "Eccentricity": 0.0009494,
            "ArgumentOfPerigee": 289.5064,
            "MeanAnomaly": 70.3772,
            "MeanMotion": 2.13104134,
            "RevolutionNumber": "1015"
        }
    ]
}